start=new Date('2022-11-16T00:00:00.000Z').valueOf();
sats=[{"APOAPSIS":"548.063","PERIAPSIS":"546.354","REF_FRAME":"TEME","TIME_SYSTEM":"UTC","CENTER_NAME":"EARTH","COUNTRY_CODE":"US","ELEMENT_SET_NO":"999","GP_ID":"217902582","OBJECT_TYPE":"PAYLOAD","MEAN_MOTION_DOT":"0.00002139","DECAY_DATE":null,"EPOCH":"2022-11-15T16:56:37.291488","MEAN_ANOMALY":"268.5337","NORAD_CAT_ID":"45573","BSTAR":"0.00016244000000","RA_OF_ASC_NODE":"108.4522","TLE_LINE2":"2 45573  53.0539 108.4522 0001234  91.5794 268.5337 15.06401737142834","FILE":"3657961","SITE":"AFETR","REV_AT_EPOCH":"14283","MEAN_MOTION_DDOT":"0.0000000000000","SEMIMAJOR_AXIS":"6925.343","MEAN_MOTION":"15.06401737","RCS_SIZE":"LARGE","OBJECT_NAME":"STARLINK-1321","LAUNCH_DATE":"2020-04-22","OBJECT_ID":"2020-025AU","PERIOD":"95.592","MEAN_ELEMENT_THEORY":"SGP4","INCLINATION":"53.0539","EPHEMERIS_TYPE":"0","CLASSIFICATION_TYPE":"U","ECCENTRICITY":"0.00012340","ARG_OF_PERICENTER":"91.5794","TLE_LINE1":"1 45573U 20025AU  22319.70598717  .00002139  00000-0  16244-3 0  9999"},{"BSTAR":"0.00016521000000","DECAY_DATE":null,"EPOCH":"2022-11-15T19:09:18.994464","MEAN_ANOMALY":"268.5706","NORAD_CAT_ID":"45574","SITE":"AFETR","REV_AT_EPOCH":"14316","RA_OF_ASC_NODE":"108.0213","TLE_LINE2":"2 45574  53.0557 108.0213 0001467  91.5451 268.5706 15.06398294143166","FILE":"3657961","TIME_SYSTEM":"UTC","REF_FRAME":"TEME","APOAPSIS":"548.235","PERIAPSIS":"546.203","MEAN_MOTION_DOT":"0.00002180","CENTER_NAME":"EARTH","COUNTRY_CODE":"US","ELEMENT_SET_NO":"999","GP_ID":"217901830","OBJECT_TYPE":"PAYLOAD","INCLINATION":"53.0557","EPHEMERIS_TYPE":"0","CLASSIFICATION_TYPE":"U","MEAN_ELEMENT_THEORY":"SGP4","ECCENTRICITY":"0.00014670","ARG_OF_PERICENTER":"91.5451","TLE_LINE1":"1 45574U 20025AV  22319.79813651  .00002180  00000-0  16521-3 0  9990","SEMIMAJOR_AXIS":"6925.354","MEAN_MOTION":"15.06398294","MEAN_MOTION_DDOT":"0.0000000000000","OBJECT_ID":"2020-025AV","PERIOD":"95.592","RCS_SIZE":"LARGE","OBJECT_NAME":"STARLINK-1324","LAUNCH_DATE":"2020-04-22"},{"GP_ID":"217902080","COUNTRY_CODE":"US","ELEMENT_SET_NO":"999","CENTER_NAME":"EARTH","OBJECT_TYPE":"PAYLOAD","MEAN_MOTION_DOT":"0.00034301","PERIAPSIS":"498.665","APOAPSIS":"500.404","TIME_SYSTEM":"UTC","REF_FRAME":"TEME","TLE_LINE2":"2 45575  52.9978  83.4451 0001264 316.9816  43.1080 15.22091639143462","FILE":"3657961","RA_OF_ASC_NODE":"83.4451","SITE":"AFETR","REV_AT_EPOCH":"14346","DECAY_DATE":null,"NORAD_CAT_ID":"45575","MEAN_ANOMALY":"43.1080","EPOCH":"2022-11-15T19:42:51.501024","BSTAR":"0.00148650000000","LAUNCH_DATE":"2020-04-22","RCS_SIZE":"LARGE","OBJECT_NAME":"STARLINK-1326","OBJECT_ID":"2020-025AW","PERIOD":"94.607","MEAN_MOTION_DDOT":"0.0000000000000","MEAN_MOTION":"15.22091639","SEMIMAJOR_AXIS":"6877.670","ARG_OF_PERICENTER":"316.9816","ECCENTRICITY":"0.00012640","TLE_LINE1":"1 45575U 20025AW  22319.82142941  .00034301  00000-0  14865-2 0  9990","MEAN_ELEMENT_THEORY":"SGP4","INCLINATION":"52.9978","CLASSIFICATION_TYPE":"U","EPHEMERIS_TYPE":"0"},{"APOAPSIS":"548.226","PERIAPSIS":"546.198","TIME_SYSTEM":"UTC","REF_FRAME":"TEME","COUNTRY_CODE":"US","ELEMENT_SET_NO":"999","CENTER_NAME":"EARTH","GP_ID":"217902332","OBJECT_TYPE":"PAYLOAD","MEAN_MOTION_DOT":"0.00000183","DECAY_DATE":null,"MEAN_ANOMALY":"282.9474","EPOCH":"2022-11-15T16:35:23.101440","NORAD_CAT_ID":"45576","BSTAR":"0.00003121400000","TLE_LINE2":"2 45576  53.0565 108.5231 0001464  77.1678 282.9474 15.06400397143148","FILE":"3657961","RA_OF_ASC_NODE":"108.5231","SITE":"AFETR","REV_AT_EPOCH":"14314","MEAN_MOTION_DDOT":"0.0000000000000","SEMIMAJOR_AXIS":"6925.347","MEAN_MOTION":"15.06400397","OBJECT_NAME":"STARLINK-1328","RCS_SIZE":"LARGE","LAUNCH_DATE":"2020-04-22","OBJECT_ID":"2020-025AX","PERIOD":"95.592","MEAN_ELEMENT_THEORY":"SGP4","INCLINATION":"53.0565","CLASSIFICATION_TYPE":"U","EPHEMERIS_TYPE":"0","ECCENTRICITY":"0.00014640","ARG_OF_PERICENTER":"77.1678","TLE_LINE1":"1 45576U 20025AX  22319.69123960  .00000183  00000-0  31214-4 0  9996"},{"ARG_OF_PERICENTER":"167.6408","ECCENTRICITY":"0.00007940","TLE_LINE1":"1 45577U 20025AY  22319.73614711  .00019219  00000-0  11766-2 0  9999","INCLINATION":"53.0525","EPHEMERIS_TYPE":"0","CLASSIFICATION_TYPE":"U","MEAN_ELEMENT_THEORY":"SGP4","OBJECT_ID":"2020-025AY","PERIOD":"95.350","LAUNCH_DATE":"2020-04-22","OBJECT_NAME":"STARLINK-1330","RCS_SIZE":"LARGE","MEAN_MOTION":"15.10233334","SEMIMAJOR_AXIS":"6913.625","MEAN_MOTION_DDOT":"0.0000000000000","SITE":"AFETR","REV_AT_EPOCH":"14315","FILE":"3657961","TLE_LINE2":"2 45577  53.0525 107.1610 0000794 167.6408 192.4602 15.10233334143151","RA_OF_ASC_NODE":"107.1610","BSTAR":"0.00117660000000","DECAY_DATE":null,"NORAD_CAT_ID":"45577","EPOCH":"2022-11-15T17:40:03.110304","MEAN_ANOMALY":"192.4602","MEAN_MOTION_DOT":"0.00019219","GP_ID":"217903081","COUNTRY_CODE":"US","CENTER_NAME":"EARTH","ELEMENT_SET_NO":"999","OBJECT_TYPE":"PAYLOAD","TIME_SYSTEM":"UTC","REF_FRAME":"TEME","PERIAPSIS":"534.941","APOAPSIS":"536.039"},{"PERIOD":"95.592","OBJECT_ID":"2020-025AZ","LAUNCH_DATE":"2020-04-22","RCS_SIZE":"LARGE","OBJECT_NAME":"STARLINK-1331","MEAN_MOTION":"15.06404993","SEMIMAJOR_AXIS":"6925.333","MEAN_MOTION_DDOT":"0.0000000000000","TLE_LINE1":"1 45578U 20025AZ  22319.68386857  .00000454  00000-0  49379-4 0  9995","ARG_OF_PERICENTER":"88.1601","ECCENTRICITY":"0.00012830","CLASSIFICATION_TYPE":"U","EPHEMERIS_TYPE":"0","INCLINATION":"53.0557","MEAN_ELEMENT_THEORY":"SGP4","MEAN_MOTION_DOT":"0.00000454","OBJECT_TYPE":"PAYLOAD","GP_ID":"217901331","ELEMENT_SET_NO":"999","COUNTRY_CODE":"US","CENTER_NAME":"EARTH","TIME_SYSTEM":"UTC","REF_FRAME":"TEME","PERIAPSIS":"546.310","APOAPSIS":"548.087","REV_AT_EPOCH":"14314","SITE":"AFETR","RA_OF_ASC_NODE":"108.5442","TLE_LINE2":"2 45578  53.0557 108.5442 0001283  88.1601 271.9535 15.06404993143144","FILE":"3657961","BSTAR":"0.00004937900000","NORAD_CAT_ID":"45578","EPOCH":"2022-11-15T16:24:46.244448","MEAN_ANOMALY":"271.9535","DECAY_DATE":null},{"MEAN_ELEMENT_THEORY":"SGP4","INCLINATION":"53.0562","EPHEMERIS_TYPE":"0","CLASSIFICATION_TYPE":"U","ARG_OF_PERICENTER":"103.9752","ECCENTRICITY":"0.00010090","TLE_LINE1":"1 45579U 20025BA  22319.69126463  .00002403  00000-0  18015-3 0  9990","MEAN_MOTION_DDOT":"0.0000000000000","MEAN_MOTION":"15.06394830","SEMIMAJOR_AXIS":"6925.364","LAUNCH_DATE":"2020-04-22","RCS_SIZE":"LARGE","OBJECT_NAME":"STARLINK-1332","OBJECT_ID":"2020-025BA","PERIOD":"95.592","DECAY_DATE":null,"NORAD_CAT_ID":"45579","EPOCH":"2022-11-15T16:35:25.264032","MEAN_ANOMALY":"256.1349","BSTAR":"0.00018015000000","TLE_LINE2":"2 45579  53.0562  68.6688 0001009 103.9752 256.1349 15.06394830143694","RA_OF_ASC_NODE":"68.6688","FILE":"3657961","SITE":"AFETR","REV_AT_EPOCH":"14369","PERIAPSIS":"546.531","APOAPSIS":"547.928","REF_FRAME":"TEME","TIME_SYSTEM":"UTC","GP_ID":"217901581","COUNTRY_CODE":"US","CENTER_NAME":"EARTH","ELEMENT_SET_NO":"999","OBJECT_TYPE":"PAYLOAD","MEAN_MOTION_DOT":"0.00002403"},{"BSTAR":"0.00088523000000","EPOCH":"2022-11-15T18:09:37.723104","MEAN_ANOMALY":"253.7038","NORAD_CAT_ID":"45580","DECAY_DATE":null,"REV_AT_EPOCH":"14300","SITE":"AFETR","FILE":"3657961","TLE_LINE2":"2 45580  53.0548 118.2099 0002294 106.4203 253.7038 15.06349535143009","RA_OF_ASC_NODE":"118.2099","TIME_SYSTEM":"UTC","REF_FRAME":"TEME","APOAPSIS":"548.957","PERIAPSIS":"545.780","MEAN_MOTION_DOT":"0.00012911","OBJECT_TYPE":"PAYLOAD","ELEMENT_SET_NO":"999","COUNTRY_CODE":"US","CENTER_NAME":"EARTH","GP_ID":"217902832","CLASSIFICATION_TYPE":"U","EPHEMERIS_TYPE":"0","INCLINATION":"53.0548","MEAN_ELEMENT_THEORY":"SGP4","TLE_LINE1":"1 45580U 20025BB  22319.75668661  .00012911  00000-0  88523-3 0  9996","ECCENTRICITY":"0.00022940","ARG_OF_PERICENTER":"106.4203","SEMIMAJOR_AXIS":"6925.503","MEAN_MOTION":"15.06349535","MEAN_MOTION_DDOT":"0.0000000000000","PERIOD":"95.595","OBJECT_ID":"2020-025BB","OBJECT_NAME":"STARLINK-1333","RCS_SIZE":"LARGE","LAUNCH_DATE":"2020-04-22"},{"TLE_LINE1":"1 45581U 20025BC  22319.69492562  .00000760  00000-0  69911-4 0  9995","ECCENTRICITY":"0.00009260","ARG_OF_PERICENTER":"75.6381","MEAN_ELEMENT_THEORY":"SGP4","CLASSIFICATION_TYPE":"U","EPHEMERIS_TYPE":"0","INCLINATION":"53.0550","OBJECT_NAME":"STARLINK-1335","RCS_SIZE":"LARGE","LAUNCH_DATE":"2020-04-22","PERIOD":"95.592","OBJECT_ID":"2020-025BC","MEAN_MOTION_DDOT":"0.0000000000000","SEMIMAJOR_AXIS":"6925.340","MEAN_MOTION":"15.06402799","RA_OF_ASC_NODE":"108.4948","TLE_LINE2":"2 45581  53.0550 108.4948 0000926  75.6381 284.4711 15.06402799143136","FILE":"3657961","REV_AT_EPOCH":"14313","SITE":"AFETR","MEAN_ANOMALY":"284.4711","EPOCH":"2022-11-15T16:40:41.573568","NORAD_CAT_ID":"45581","DECAY_DATE":null,"BSTAR":"0.00006991100000","OBJECT_TYPE":"PAYLOAD","COUNTRY_CODE":"US","ELEMENT_SET_NO":"999","CENTER_NAME":"EARTH","GP_ID":"217902583","MEAN_MOTION_DOT":"0.00000760","APOAPSIS":"547.846","PERIAPSIS":"546.564","TIME_SYSTEM":"UTC","REF_FRAME":"TEME"},{"BSTAR":"0.00007211800000","NORAD_CAT_ID":"45582","EPOCH":"2022-11-15T20:23:37.352832","MEAN_ANOMALY":"302.4979","DECAY_DATE":null,"REV_AT_EPOCH":"14315","SITE":"AFETR","FILE":"3657961","TLE_LINE2":"2 45582  53.0545 107.8095 0001611  57.6166 302.4979 15.06399182143150","RA_OF_ASC_NODE":"107.8095","REF_FRAME":"TEME","TIME_SYSTEM":"UTC","PERIAPSIS":"546.100","APOAPSIS":"548.332","MEAN_MOTION_DOT":"0.00000793","OBJECT_TYPE":"PAYLOAD","GP_ID":"217901831","CENTER_NAME":"EARTH","COUNTRY_CODE":"US","ELEMENT_SET_NO":"999","CLASSIFICATION_TYPE":"U","EPHEMERIS_TYPE":"0","INCLINATION":"53.0545","MEAN_ELEMENT_THEORY":"SGP4","TLE_LINE1":"1 45582U 20025BD  22319.84973788  .00000793  00000-0  72118-4 0  9996","ARG_OF_PERICENTER":"57.6166","ECCENTRICITY":"0.00016110","MEAN_MOTION":"15.06399182","SEMIMAJOR_AXIS":"6925.351","MEAN_MOTION_DDOT":"0.0000000000000","PERIOD":"95.592","OBJECT_ID":"2020-025BD","LAUNCH_DATE":"2020-04-22","OBJECT_NAME":"STARLINK-1337","RCS_SIZE":"LARGE"}];
